NORAD_CAT_ID,OBJECT_NAME,OBJECT_TYPE,EPOCH,MEAN_MOTION,ECCENTRICITY,INCLINATION,RA_OF_ASC_NODE,ARG_OF_PERICENTER,MEAN_ANOMALY,BSTAR,MEAN_MOTION_DOT,MEAN_MOTION_DDOT,TLE_LINE0,TLE_LINE1,TLE_LINE2,SEMIMAJOR_AXIS,PERIOD,APOGEE,PERIGEE,DECAYED
54766.0,STARLINK-5471,PAYLOAD,2024-05-15 09:24:01,15.08854866,0.0001052,53.2153,141.7743,103.407,256.704,0.00039995,6.086e-05,0.0,0 STARLINK-5471,1 54766U 22175J   24136.39167879  .00006086  00000-0  39995-3 0  9999,2 54766  53.2153 141.7743 0001052 103.4070 256.7040 15.08854866 79785,6917.835,95.437,540.428,538.972,0.0
54766.0,STARLINK-5471,PAYLOAD,2024-05-16 09:14:47,15.08854984,0.0001045,53.2154,137.3136,99.7466,260.3644,7.6303e-05,9.27e-06,0.0,0 STARLINK-5471,1 54766U 22175J   24137.38526908  .00000927  00000-0  76303-4 0  9994,2 54766  53.2154 137.3136 0001045  99.7466 260.3644 15.08854984 77770,6917.835,95.437,540.423,538.977,0.0
54766.0,STARLINK-5471,PAYLOAD,2024-05-16 17:11:42,15.08857537,0.0001067,53.2154,135.8265,90.5011,269.6103,7.7997e-05,9.54e-06,0.0,0 STARLINK-5471,1 54766U 22175J   24137.71646490  .00000954  00000-0  77997-4 0  9990,2 54766  53.2154 135.8265 0001067  90.5011 269.6103 15.08857537 79989,6917.827,95.436,540.43,538.954,0.0
54766.0,STARLINK-5471,PAYLOAD,2024-05-17 04:19:24,15.08844782,0.000111,53.2157,133.7448,93.6007,266.5113,-4.5673e-05,-1.015e-05,0.0,0 STARLINK-5471,1 54766U 22175J   24138.18014883 -.00001015  00000-0 -45673-4 0  9994,2 54766  53.2157 133.7448 0001110  93.6007 266.5113 15.08844782 77893,6917.866,95.437,540.499,538.963,0.0
54766.0,STARLINK-5471,PAYLOAD,2024-05-17 09:05:34,15.08851035,0.0001202,53.2168,132.85,120.6423,239.4688,-5.8551e-06,-3.81e-06,0.0,0 STARLINK-5471,1 54766U 22175J   24138.37886603 -.00000381  00000-0 -58551-5 0  9997,2 54766  53.2168 132.8500 0001202 120.6423 239.4688 15.08851035 80089,6917.847,95.437,540.543,538.88,0.0
54766.0,STARLINK-5471,PAYLOAD,2024-05-17 17:02:29,15.08853211,0.0001107,53.2169,131.3629,102.9118,257.1998,4.5499e-05,4.37e-06,0.0,0 STARLINK-5471,1 54766U 22175J   24138.71006096  .00000437  00000-0  45499-4 0  9991,2 54766  53.2169 131.3629 0001107 102.9118 257.1998 15.08853211 77977,6917.84,95.437,540.471,538.939,0.0
54766.0,STARLINK-5471,PAYLOAD,2024-05-18 05:45:35,15.08843098,0.0001211,53.217,128.9851,92.7736,267.3395,-4.9616e-06,-3.67e-06,0.0,0 STARLINK-5471,1 54766U 22175J   24139.23998846 -.00000367  00000-0 -49616-5 0  9992,2 54766  53.2170 128.9851 0001211  92.7736 267.3395 15.08843098 78052,6917.871,95.437,540.574,538.898,0.0
54766.0,STARLINK-5471,PAYLOAD,2024-05-18 08:56:21,15.0884178,0.000136,53.2181,128.3913,97.4607,262.654,-3.3694e-05,-8.24e-06,0.0,0 STARLINK-5471,1 54766U 22175J   24139.37246981 -.00000824  00000-0 -33694-4 0  9999,2 54766  53.2181 128.3913 0001360  97.4607 262.6540 15.08841780 80230,6917.875,95.437,540.681,538.799,0.0
54766.0,STARLINK-5471,PAYLOAD,2024-05-18 16:53:17,15.08840754,0.0001464,53.2193,126.903,95.4242,264.6917,1.8188e-06,-2.59e-06,0.0,0 STARLINK-5471,1 54766U 22175J   24139.70366906 -.00000259  00000-0  18188-5 0  9999,2 54766  53.2193 126.9030 0001464  95.4242 264.6917 15.08840754 80280,6917.878,95.438,540.756,538.73,0.0
54766.0,STARLINK-5471,PAYLOAD,2024-05-19 05:36:22,15.08831951,0.0001554,53.2193,124.5261,95.5159,264.601,-3.5048e-05,-8.46e-06,0.0,0 STARLINK-5471,1 54766U 22175J   24140.23359734 -.00000846  00000-0 -35048-4 0  9996,2 54766  53.2193 124.5261 0001554  95.5159 264.6010 15.08831951 78200,6917.905,95.438,540.845,538.695,0.0
54766.0,STARLINK-5471,PAYLOAD,2024-05-20 05:27:09,15.08843484,0.0001248,53.2174,120.0664,93.3267,266.7868,0.00011176,1.491e-05,0.0,0 STARLINK-5471,1 54766U 22175J   24141.22718809  .00001491  00000-0  11176-3 0  9998,2 54766  53.2174 120.0664 0001248  93.3267 266.7868 15.08843484 78357,6917.87,95.437,540.598,538.871,0.0
54766.0,STARLINK-5471,PAYLOAD,2024-05-21 05:17:57,15.08829798,0.0001139,53.2167,115.6044,95.1356,264.9766,5.2023e-05,5.4e-06,0.0,0 STARLINK-5471,1 54766U 22175J   24142.22080032  .00000540  00000-0  52023-4 0  9990,2 54766  53.2167 115.6044 0001139  95.1356 264.9766 15.08829798 78505,6917.912,95.438,540.565,538.989,0.0
54766.0,STARLINK-5471,PAYLOAD,2024-05-21 22:47:11,15.08836525,0.0001139,53.2167,112.3326,98.5342,261.5779,-2.6616e-05,-7.11e-06,0.0,0 STARLINK-5471,1 54766U 22175J   24142.94944086 -.00000711  00000-0 -26616-4 0  9998,2 54766  53.2167 112.3326 0001139  98.5342 261.5779 15.08836525 80779,6917.891,95.438,540.544,538.968,0.0
54766.0,STARLINK-5471,PAYLOAD,2024-05-22 05:08:44,15.08836357,0.0001138,53.2169,111.1433,99.0458,261.0663,-3.4736e-05,-8.41e-06,0.0,0 STARLINK-5471,1 54766U 22175J   24143.21440137 -.00000841  00000-0 -34736-4 0  9993,2 54766  53.2169 111.1433 0001138  99.0458 261.0663 15.08836357 80815,6917.892,95.438,540.544,538.969,0.0
54766.0,STARLINK-5471,PAYLOAD,2024-05-23 04:59:31,15.08832677,0.0001152,53.2171,106.6837,95.4973,264.615,9.061e-05,1.154e-05,0.0,0 STARLINK-5471,1 54766U 22175J   24144.20800309  .00001154  00000-0  90610-4 0  9993,2 54766  53.2171 106.6837 0001152  95.4973 264.6150 15.08832677 78800,6917.903,95.438,540.565,538.971,0.0
54766.0,STARLINK-5471,PAYLOAD,2024-05-23 06:34:54,15.08834505,0.0001193,53.2173,106.3863,98.504,261.6087,0.00010477,1.38e-05,0.0,0 STARLINK-5471,1 54766U 22175J   24144.27424180  .00001380  00000-0  10477-3 0  9992,2 54766  53.2173 106.3863 0001193  98.5040 261.6087 15.08834505 80971,6917.897,95.438,540.587,538.937,0.0
54766.0,STARLINK-5471,PAYLOAD,2024-05-24 03:14:55,15.08838625,0.0001201,53.2174,102.5209,102.2,257.9127,9.9888e-05,1.302e-05,0.0,0 STARLINK-5471,1 54766U 22175J   24145.13536139  .00001302  00000-0  99888-4 0  9994,2 54766  53.2174 102.5209 0001201 102.2000 257.9127 15.08838625 81109,6917.885,95.438,540.58,538.919,0.0
54766.0,STARLINK-5471,PAYLOAD,2024-05-24 20:44:09,15.08844329,0.0001295,53.2179,99.2509,96.9314,263.1825,7.9317e-05,9.75e-06,0.0,0 STARLINK-5471,1 54766U 22175J   24145.86399850  .00000975  00000-0  79317-4 0  9991,2 54766  53.2179  99.2509 0001295  96.9314 263.1825 15.08844329 79052,6917.867,95.437,540.628,538.836,0.0
54766.0,STARLINK-5471,PAYLOAD,2024-05-25 06:16:28,15.08838282,0.0001261,53.2179,97.4647,92.4503,267.6633,2.0567e-05,3.9e-07,0.0,0 STARLINK-5471,1 54766U 22175J   24146.26144410  .00000039  00000-0  20567-4 0  9990,2 54766  53.2179  97.4647 0001261  92.4503 267.6633 15.08838282 79113,6917.886,95.438,540.623,538.878,0.0
54766.0,STARLINK-5471,PAYLOAD,2024-05-25 14:13:24,15.08837803,0.0001195,53.2176,95.9819,122.3287,237.7821,7.3766e-05,8.86e-06,0.0,0 STARLINK-5471,1 54766U 22175J   24146.59264171  .00000886  00000-0  73766-4 0  9992,2 54766  53.2176  95.9819 0001195 122.3287 237.7821 15.08837803 81323,6917.887,95.438,540.579,538.925,0.0
54766.0,STARLINK-5471,PAYLOAD,2024-05-26 02:56:29,15.08839468,0.000138,53.2192,93.6003,95.4073,264.7077,-6.5444e-06,-3.92e-06,0.0,0 STARLINK-5471,1 54766U 22175J   24147.12256428 -.00000392  00000-0 -65444-5 0  9997,2 54766  53.2192  93.6003 0001380  95.4073 264.7077 15.08839468 81401,6917.882,95.438,540.702,538.792,0.0
54766.0,STARLINK-5471,PAYLOAD,2024-05-26 20:25:43,15.08838223,0.000148,53.2189,90.3299,93.7821,266.334,6.9048e-05,8.11e-06,0.0,0 STARLINK-5471,1 54766U 22175J   24147.85120138  .00000811  00000-0  69048-4 0  9992,2 54766  53.2189  90.3299 0001480  93.7821 266.3340 15.08838223 79351,6917.886,95.438,540.775,538.727,0.0
54766.0,STARLINK-5471,PAYLOAD,2024-05-27 02:47:16,15.08835535,0.000144,53.2187,89.1405,93.1473,266.9684,4.02e-05,3.52e-06,0.0,0 STARLINK-5471,1 54766U 22175J   24148.11616441  .00000352  00000-0  40200-4 0  9998,2 54766  53.2187  89.1405 0001440  93.1473 266.9684 15.08835535 81552,6917.894,95.438,540.755,538.763,0.0
54766.0,STARLINK-5471,PAYLOAD,2024-05-28 02:38:03,15.08837028,0.0001244,53.2175,84.6789,93.7322,266.3812,-3.2724e-06,-3.4e-06,0.0,0 STARLINK-5471,1 54766U 22175J   24149.10976602 -.00000340  00000-0 -32724-5 0  9998,2 54766  53.2175  84.6789 0001244  93.7322 266.3812 15.08837028 79547,6917.889,95.438,540.615,538.894,0.0
54766.0,STARLINK-5471,PAYLOAD,2024-05-28 12:10:22,15.08836713,0.0001243,53.2176,82.8953,95.1272,264.9862,-1.6744e-06,-3.14e-06,0.0,0 STARLINK-5471,1 54766U 22175J   24149.50720665 -.00000314  00000-0 -16744-5 0  9993,2 54766  53.2176  82.8953 0001243  95.1272 264.9862 15.08836713 81766,6917.89,95.438,540.615,538.896,0.0
54766.0,STARLINK-5471,PAYLOAD,2024-05-29 05:39:37,15.08837602,0.0001304,53.2178,79.6247,92.035,268.0792,4.3215e-05,4e-06,0.0,0 STARLINK-5471,1 54766U 22175J   24150.23584603  .00000400  00000-0  43215-4 0  9991,2 54766  53.2178  79.6247 0001304  92.0350 268.0792 15.08837602 79716,6917.888,95.438,540.655,538.851,0.0
54766.0,STARLINK-5471,PAYLOAD,2024-05-30 00:44:15,15.08835121,0.0001399,53.2181,76.056,94.077,266.0382,3.0336e-05,1.95e-06,0.0,0 STARLINK-5471,1 54766U 22175J   24151.03073116  .00000195  00000-0  30336-4 0  9993,2 54766  53.2181  76.0560 0001399  94.0770 266.0382 15.08835121 81991,6917.895,95.438,540.728,538.792,0.0
54766.0,STARLINK-5471,PAYLOAD,2024-05-31 03:45:48,15.08841018,0.0001406,53.2183,71.0002,90.2614,269.854,5.5713e-05,5.99e-06,0.0,0 STARLINK-5471,1 54766U 22175J   24152.15680784  .00000599  00000-0  55713-4 0  9996,2 54766  53.2183  71.0002 0001406  90.2614 269.8540 15.08841018 80003,6917.877,95.437,540.715,538.77,0.0
54766.0,STARLINK-5471,PAYLOAD,2024-05-31 22:50:26,15.08829285,0.0001779,53.2181,67.4327,86.3374,273.7821,3.3385e-05,2.43e-06,0.0,0 STARLINK-5471,1 54766U 22175J   24152.95169681  .00000243  00000-0  33385-4 0  9999,2 54766  53.2181  67.4327 0001779  86.3374 273.7821 15.08829285 82282,6917.913,95.438,541.009,538.547,0.0
54766.0,STARLINK-5471,PAYLOAD,2024-06-01 02:01:12,15.08836349,0.0001386,53.2182,66.8386,85.3745,274.7406,-4.5339e-05,-1.009e-05,0.0,0 STARLINK-5471,1 54766U 22175J   24153.08417500 -.00001009  00000-0 -45339-4 0  9995,2 54766  53.2182  66.8386 0001386  85.3745 274.7406 15.08836349 80148,6917.892,95.438,540.715,538.798,0.0
